{
  "type": "FeatureCollection",
  "features": [
    {
      "type": "Feature",
      "properties": {
        "norad_id": 30445,
        "name": "FENGYUN 1C DEB",
        "group": "fengyun-1c-debris",
        "lat": -65.36617513578346,
        "lon": -32.13128966832562,
        "alt_km": 695.1203941153562,
        "timestamp": "2025-12-22T05:49:03.775997+00:00",
        "meta_object_name": "FENGYUN 1C DEB",
        "meta_object_id": "1999-025AFG",
        "meta_epoch": "2025-12-21T20:10:32.152224",
        "meta_mean_motion": 14.48794595,
        "meta_eccentricity": 0.0105372,
        "meta_inclination": 98.8369,
        "meta_ra_of_asc_node": 307.6163,
        "meta_arg_of_pericenter": 351.0596,
        "meta_mean_anomaly": 8.8716,
        "meta_ephemeris_type": 0,
        "meta_classification_type": "U",
        "meta_norad_cat_id": 30445,
        "meta_element_set_no": 999,
        "meta_rev_at_epoch": 99316,
        "meta_bstar": 0.00062354,
        "meta_mean_motion_dot": 2.473e-05,
        "meta_mean_motion_ddot": 0,
        "tle_line1": "1 30445U 99025AFG 25355.84064991  .00002473  00000+0  62354-3 0  9990",
        "tle_line2": "2 30445  98.8369 307.6163 0105372 351.0596   8.8716 14.48794595993168"
      },
      "geometry": {
        "type": "Point",
        "coordinates": [
          -32.13128966832562,
          -65.36617513578346
        ]
      }
    },
    {
      "type": "Feature",
      "properties": {
        "norad_id": 30446,
        "name": "FENGYUN 1C DEB",
        "group": "fengyun-1c-debris",
        "lat": -62.11702990311837,
        "lon": 95.51983270222838,
        "alt_km": 766.4496786197751,
        "timestamp": "2025-12-22T05:49:03.776008+00:00",
        "meta_object_name": "FENGYUN 1C DEB",
        "meta_object_id": "1999-025AFH",
        "meta_epoch": "2025-12-21T11:49:41.624832",
        "meta_mean_motion": 14.44813414,
        "meta_eccentricity": 0.0034231,
        "meta_inclination": 98.6132,
        "meta_ra_of_asc_node": 78.1134,
        "meta_arg_of_pericenter": 72.2363,
        "meta_mean_anomaly": 288.2558,
        "meta_ephemeris_type": 0,
        "meta_classification_type": "U",
        "meta_norad_cat_id": 30446,
        "meta_element_set_no": 999,
        "meta_rev_at_epoch": 98303,
        "meta_bstar": 0.0012128,
        "meta_mean_motion_dot": 4.202e-05,
        "meta_mean_motion_ddot": 0,
        "tle_line1": "1 30446U 99025AFH 25355.49284288  .00004202  00000+0  12128-2 0  9990",
        "tle_line2": "2 30446  98.6132  78.1134 0034231  72.2363 288.2558 14.44813414983033"
      },
      "geometry": {
        "type": "Point",
        "coordinates": [
          95.51983270222838,
          -62.11702990311837
        ]
      }
    },
    {
      "type": "Feature",
      "properties": {
        "norad_id": 30447,
        "name": "FENGYUN 1C DEB",
        "group": "fengyun-1c-debris",
        "lat": 73.4973506151923,
        "lon": 70.74036807498119,
        "alt_km": 704.7632187096824,
        "timestamp": "2025-12-22T05:49:03.776018+00:00",
        "meta_object_name": "FENGYUN 1C DEB",
        "meta_object_id": "1999-025AFJ",
        "meta_epoch": "2025-12-21T13:08:47.030784",
        "meta_mean_motion": 14.56761048,
        "meta_eccentricity": 0.0060117,
        "meta_inclination": 98.9713,
        "meta_ra_of_asc_node": 217.7696,
        "meta_arg_of_pericenter": 4.5143,
        "meta_mean_anomaly": 57.8621,
        "meta_ephemeris_type": 0,
        "meta_classification_type": "U",
        "meta_norad_cat_id": 30447,
        "meta_element_set_no": 999,
        "meta_rev_at_epoch": 98224,
        "meta_bstar": 0.0019082,
        "meta_mean_motion_dot": 8.701e-05,
        "meta_mean_motion_ddot": 0,
        "tle_line1": "1 30447U 99025AFJ 25355.54776656  .00008701  00000+0  19082-2 0  9996",
        "tle_line2": "2 30447  98.9713 217.7696 0060117   4.5143  57.8621 14.56761048982243"
      },
      "geometry": {
        "type": "Point",
        "coordinates": [
          70.74036807498119,
          73.4973506151923
        ]
      }
    },
    {
      "type": "Feature",
      "properties": {
        "norad_id": 30448,
        "name": "FENGYUN 1C DEB",
        "group": "fengyun-1c-debris",
        "lat": 10.620425212837906,
        "lon": -90.27279673165953,
        "alt_km": 787.7672582329515,
        "timestamp": "2025-12-22T05:49:03.776029+00:00",
        "meta_object_name": "FENGYUN 1C DEB",
        "meta_object_id": "1999-025AFK",
        "meta_epoch": "2025-12-21T17:55:43.428288",
        "meta_mean_motion": 14.35215097,
        "meta_eccentricity": 0.0016893,
        "meta_inclination": 98.8309,
        "meta_ra_of_asc_node": 87.5501,
        "meta_arg_of_pericenter": 343.0741,
        "meta_mean_anomaly": 148.054,
        "meta_ephemeris_type": 0,
        "meta_classification_type": "U",
        "meta_norad_cat_id": 30448,
        "meta_element_set_no": 999,
        "meta_rev_at_epoch": 97467,
        "meta_bstar": 0.0014229,
        "meta_mean_motion_dot": 4.032e-05,
        "meta_mean_motion_ddot": 0,
        "tle_line1": "1 30448U 99025AFK 25355.74703042  .00004032  00000+0  14229-2 0  9999",
        "tle_line2": "2 30448  98.8309  87.5501 0016893 343.0741 148.0540 14.35215097974675"
      },
      "geometry": {
        "type": "Point",
        "coordinates": [
          -90.27279673165953,
          10.620425212837906
        ]
      }
    },
    {
      "type": "Feature",
      "properties": {
        "norad_id": 30450,
        "name": "FENGYUN 1C DEB",
        "group": "fengyun-1c-debris",
        "lat": 57.585471648867795,
        "lon": -157.00431456441814,
        "alt_km": 606.869627876621,
        "timestamp": "2025-12-22T05:49:03.776040+00:00",
        "meta_object_name": "FENGYUN 1C DEB",
        "meta_object_id": "1999-025AFM",
        "meta_epoch": "2025-12-21T11:48:21.146688",
        "meta_mean_motion": 14.61836786,
        "meta_eccentricity": 0.01895228,
        "meta_inclination": 98.0795,
        "meta_ra_of_asc_node": 9.3347,
        "meta_arg_of_pericenter": 180.7336,
        "meta_mean_anomaly": 315.3069,
        "meta_ephemeris_type": 0,
        "meta_classification_type": "U",
        "meta_norad_cat_id": 30450,
        "meta_element_set_no": 999,
        "meta_rev_at_epoch": 99670,
        "meta_bstar": 0.00040481976,
        "meta_mean_motion_dot": 2.559e-05,
        "meta_mean_motion_ddot": 0,
        "tle_line1": "1 30450U 99025AFM 25355.49191142  .00002559  00000+0  40482-3 0  9999",
        "tle_line2": "2 30450  98.0795   9.3347 0189522 180.7336 315.3069 14.61836786996701"
      },
      "geometry": {
        "type": "Point",
        "coordinates": [
          -157.00431456441814,
          57.585471648867795
        ]
      }
    },
    {
      "type": "Feature",
      "properties": {
        "norad_id": 30452,
        "name": "FENGYUN 1C DEB",
        "group": "fengyun-1c-debris",
        "lat": 45.12928474890786,
        "lon": 126.68562523228935,
        "alt_km": 708.4011500782299,
        "timestamp": "2025-12-22T05:49:03.776050+00:00",
        "meta_object_name": "FENGYUN 1C DEB",
        "meta_object_id": "1999-025AFP",
        "meta_epoch": "2025-12-19T08:52:52.391712",
        "meta_mean_motion": 14.64805367,
        "meta_eccentricity": 0.0049499,
        "meta_inclination": 99.3216,
        "meta_ra_of_asc_node": 132.9317,
        "meta_arg_of_pericenter": 232.8822,
        "meta_mean_anomaly": 154.6222,
        "meta_ephemeris_type": 0,
        "meta_classification_type": "U",
        "meta_norad_cat_id": 30452,
        "meta_element_set_no": 999,
        "meta_rev_at_epoch": 98204,
        "meta_bstar": 0.0027554,
        "meta_mean_motion_dot": 0.00014935,
        "meta_mean_motion_ddot": 0,
        "tle_line1": "1 30452U 99025AFP 25353.37005083  .00014935  00000+0  27554-2 0  9999",
        "tle_line2": "2 30452  99.3216 132.9317 0049499 232.8822 154.6222 14.64805367982043"
      },
      "geometry": {
        "type": "Point",
        "coordinates": [
          126.68562523228935,
          45.12928474890786
        ]
      }
    },
    {
      "type": "Feature",
      "properties": {
        "norad_id": 30453,
        "name": "FENGYUN 1C DEB",
        "group": "fengyun-1c-debris",
        "lat": -3.4557410725342197,
        "lon": -112.53975162650141,
        "alt_km": 731.9944773109964,
        "timestamp": "2025-12-22T05:49:03.776061+00:00",
        "meta_object_name": "FENGYUN 1C DEB",
        "meta_object_id": "1999-025AFQ",
        "meta_epoch": "2025-12-21T11:01:51.168000",
        "meta_mean_motion": 14.24814442,
        "meta_eccentricity": 0.01161187,
        "meta_inclination": 98.8126,
        "meta_ra_of_asc_node": 67.2113,
        "meta_arg_of_pericenter": 201.2411,
        "meta_mean_anomaly": 289.5884,
        "meta_ephemeris_type": 0,
        "meta_classification_type": "U",
        "meta_norad_cat_id": 30453,
        "meta_element_set_no": 999,
        "meta_rev_at_epoch": 97358,
        "meta_bstar": 0.0011570665,
        "meta_mean_motion_dot": 2.851e-05,
        "meta_mean_motion_ddot": 0,
        "tle_line1": "1 30453U 99025AFQ 25355.45962000  .00002851  00000+0  11571-2 0  9998",
        "tle_line2": "2 30453  98.8126  67.2113 0116118 201.2411 289.5884 14.24814442973580"
      },
      "geometry": {
        "type": "Point",
        "coordinates": [
          -112.53975162650141,
          -3.4557410725342197
        ]
      }
    }
  ]
}